{"type": "FeatureCollection", "attribution": "Map data \u00a9 OpenStreetMap contributors, ODbL 1.0", "features": [{"type": "Feature", "id": 259433234, "properties": {"name": "", "kind": "parking", "building": "", "code": "", "addr": ""}, "geometry": {"type": "Polygon", "coordinates": [[[-122.0092101, 37.2606926], [-122.0088998, 37.2606937], [-122.0088994, 37.2606289], [-122.0088186, 37.2606292], [-122.0088144, 37.2599005], [-122.0092062, 37.2598991], [-122.0092065, 37.2599607], [-122.0093008, 37.2599604], [-122.0093045, 37.2606311], [-122.0092098, 37.2606315], [-122.0092101, 37.2606926]]]}}, {"type": "Feature", "id": 259437358, "properties": {"name": "Cilker School of Art and Design", "kind": "building", "building": "yes", "code": "CIL", "addr": "", "code_source": "Official West Valley College campus map, February 2024 (legend)"}, "geometry": {"type": "Polygon", "coordinates": [[[-122.0111951, 37.2660048], [-122.0108455, 37.2660085], [-122.0108389, 37.2656063], [-122.0108382, 37.2655638], [-122.0107323, 37.2655649], [-122.010735, 37.2655766], [-122.0106536, 37.2655781], [-122.0106568, 37.2656919], [-122.0106197, 37.2656926], [-122.0104871, 37.2656949], [-122.0104754, 37.265308], [-122.0104758, 37.2652941], [-122.010436, 37.2652948], [-122.0104326, 37.2651714], [-122.010577, 37.2651689], [-122.0105776, 37.265193], [-122.0105901, 37.2651928], [-122.0107156, 37.2651908], [-122.0107142, 37.2651363], [-122.0111672, 37.2651291], [-122.0111701, 37.2652474], [-122.0112252, 37.2652465], [-122.0112237, 37.2651845], [-122.0114767, 37.26518], [-122.0114798, 37.2652773], [-122.0115264, 37.2652787], [-122.0115261, 37.2652489], [-122.011546, 37.2652491], [-122.0115968, 37.2652497], [-122.0115975, 37.2652929], [-122.0116012, 37.2655516], [-122.011602, 37.2656056], [-122.0115884, 37.2656061], [-122.0115314, 37.2656079], [-122.011528, 37.2655827], [-122.0114828, 37.265583], [-122.0114843, 37.2656892], [-122.01119, 37.2656922], [-122.0111951, 37.2660048]]]}}, {"type": "Feature", "id": 260622521, "properties": {"name": "", "kind": "building", "building": "yes", "code": "", "addr": ""}, "geometry": {"type": "Polygon", "coordinates": [[[-122.0084938, 37.2671436], [-122.0083396, 37.2671436], [-122.0083396, 37.2670379], [-122.0084938, 37.2670379], [-122.0084938, 37.2671436]]]}}, {"type": "Feature", "id": 260622522, "properties": {"name": "", "kind": "building", "building": "yes", "code": "", "addr": ""}, "geometry": {"type": "Polygon", "coordinates": [[[-122.0084943, 37.267018], [-122.0083327, 37.2670177], [-122.008333, 37.2669153], [-122.0084946, 37.2669156], [-122.0084943, 37.267018]]]}}, {"type": "Feature", "id": 260622523, "properties": {"name": "", "kind": "building", "building": "yes", "code": "", "addr": ""}, "geometry": {"type": "Polygon", "coordinates": [[[-122.0084953, 37.2668908], [-122.0083304, 37.2668905], [-122.0083307, 37.2667864], [-122.0084956, 37.2667867], [-122.0084953, 37.2668908]]]}}, {"type": "Feature", "id": 260622524, "properties": {"name": "", "kind": "building", "building": "yes", "code": "", "addr": ""}, "geometry": {"type": "Polygon", "coordinates": [[[-122.0084918, 37.2667653], [-122.0083309, 37.2667673], [-122.0083288, 37.2666622], [-122.0084897, 37.2666601], [-122.0084918, 37.2667653]]]}}, {"type": "Feature", "id": 260622525, "properties": {"name": "", "kind": "building", "building": "yes", "code": "", "addr": ""}, "geometry": {"type": "Polygon", "coordinates": [[[-122.0084908, 37.2666107], [-122.0083319, 37.2666129], [-122.008326, 37.266344], [-122.0084848, 37.2663417], [-122.0084908, 37.2666107]]]}}, {"type": "Feature", "id": 260622526, "properties": {"name": "", "kind": "building", "building": "yes", "code": "", "addr": ""}, "geometry": {"type": "Polygon", "coordinates": [[[-122.0082412, 37.2666085], [-122.0080803, 37.2666103], [-122.0080766, 37.2664038], [-122.0082375, 37.266402], [-122.0082412, 37.2666085]]]}}, {"type": "Feature", "id": 260622527, "properties": {"name": "", "kind": "building", "building": "yes", "code": "", "addr": ""}, "geometry": {"type": "Polygon", "coordinates": [[[-122.0082434, 37.2667853], [-122.0080866, 37.2667867], [-122.0080851, 37.2666827], [-122.0082419, 37.2666812], [-122.0082434, 37.2667853]]]}}, {"type": "Feature", "id": 260622528, "properties": {"name": "", "kind": "building", "building": "yes", "code": "", "addr": ""}, "geometry": {"type": "Polygon", "coordinates": [[[-122.0082436, 37.2669125], [-122.0080821, 37.2669131], [-122.0080815, 37.2668069], [-122.008243, 37.2668063], [-122.0082436, 37.2669125]]]}}, {"type": "Feature", "id": 260622529, "properties": {"name": "", "kind": "building", "building": "yes", "code": "", "addr": ""}, "geometry": {"type": "Polygon", "coordinates": [[[-122.0082473, 37.2671363], [-122.0080823, 37.267137], [-122.0080812, 37.2669603], [-122.0082461, 37.2669597], [-122.0082473, 37.2671363]]]}}, {"type": "Feature", "id": 260622530, "properties": {"name": "", "kind": "building", "building": "yes", "code": "", "addr": ""}, "geometry": {"type": "Polygon", "coordinates": [[[-122.0080079, 37.2671411], [-122.007843, 37.2671418], [-122.0078424, 37.2670414], [-122.0080073, 37.2670408], [-122.0080079, 37.2671411]]]}}, {"type": "Feature", "id": 260622531, "properties": {"name": "", "kind": "building", "building": "yes", "code": "", "addr": ""}, "geometry": {"type": "Polygon", "coordinates": [[[-122.0080028, 37.2670185], [-122.0078446, 37.2670188], [-122.0078443, 37.2669169], [-122.0080025, 37.2669166], [-122.0080028, 37.2670185]]]}}, {"type": "Feature", "id": 260622532, "properties": {"name": "", "kind": "building", "building": "yes", "code": "", "addr": ""}, "geometry": {"type": "Polygon", "coordinates": [[[-122.008006, 37.266892], [-122.0078431, 37.2668929], [-122.0078422, 37.2667915], [-122.0080051, 37.2667906], [-122.008006, 37.266892]]]}}, {"type": "Feature", "id": 260622539, "properties": {"name": "", "kind": "parking", "building": "", "code": "", "addr": ""}, "geometry": {"type": "Polygon", "coordinates": [[[-122.0063125, 37.2649273], [-122.0057318, 37.2649305], [-122.0057264, 37.2637832], [-122.0063741, 37.2637779], [-122.0063769, 37.2640703], [-122.0062736, 37.2644065], [-122.0063125, 37.2649273]]]}}, {"type": "Feature", "id": 260622540, "properties": {"name": "Warehouse and Facilities", "kind": "building", "building": "yes", "code": "W/F/GS", "addr": "", "code_source": "Official West Valley College campus map, February 2024 (legend)", "houses": "Warehouse, Facilities, General Services"}, "geometry": {"type": "Polygon", "coordinates": [[[-122.0081133, 37.2627999], [-122.0077684, 37.2628011], [-122.0077699, 37.2628578], [-122.0076401, 37.2628565], [-122.0076356, 37.2627056], [-122.007399, 37.2627067], [-122.0073976, 37.2625099], [-122.0078371, 37.26251], [-122.0078433, 37.2625987], [-122.0081133, 37.2625975], [-122.0081133, 37.2627999]]]}}, {"type": "Feature", "id": 260622541, "properties": {"name": "Social Science and Language Arts", "kind": "building", "building": "yes", "code": "LASS", "addr": "", "code_source": "Official West Valley College campus map, February 2024 (legend)"}, "geometry": {"type": "Polygon", "coordinates": [[[-122.0086199, 37.2634742], [-122.0086169, 37.2632744], [-122.0086566, 37.263274], [-122.0086564, 37.2632626], [-122.0086171, 37.263263], [-122.0086139, 37.2630574], [-122.0088165, 37.2630554], [-122.0088136, 37.2628674], [-122.0088269, 37.2628673], [-122.0088261, 37.2628154], [-122.0089283, 37.2628144], [-122.0089296, 37.2628978], [-122.0089433, 37.2628977], [-122.0089458, 37.2630589], [-122.0090028, 37.2630584], [-122.0089998, 37.2628692], [-122.0094758, 37.2628645], [-122.0094787, 37.2630511], [-122.0095792, 37.2630501], [-122.0095826, 37.2632702], [-122.0093839, 37.2632722], [-122.0093869, 37.2634656], [-122.0091546, 37.2634679], [-122.0089308, 37.2634701], [-122.0089282, 37.2632993], [-122.0089112, 37.2632994], [-122.0089141, 37.2634981], [-122.0088881, 37.2634983], [-122.0088573, 37.2634986], [-122.0088544, 37.2633025], [-122.0088441, 37.2633026], [-122.0088466, 37.2634721], [-122.0086199, 37.2634742]]]}}, {"type": "Feature", "id": 260622542, "properties": {"name": "Library", "kind": "building", "building": "yes", "code": "LRC", "addr": "", "code_source": "Official West Valley College campus map, February 2024 (legend)", "houses": "Learning Resource Commons: Library, Success Center, Maker Space, recording studios"}, "geometry": {"type": "Polygon", "coordinates": [[[-122.0086464, 37.2642064], [-122.008443, 37.2642077], [-122.0084434, 37.2642378], [-122.0084035, 37.2642381], [-122.0084048, 37.2643686], [-122.0084051, 37.2643856], [-122.0081942, 37.2643871], [-122.0081926, 37.2642443], [-122.0081575, 37.2642446], [-122.0081572, 37.264217], [-122.0079434, 37.2642186], [-122.0079424, 37.2641414], [-122.0077475, 37.2641429], [-122.0077495, 37.2643067], [-122.0074111, 37.2643093], [-122.007409, 37.2641433], [-122.0073833, 37.2641435], [-122.0073826, 37.2640885], [-122.0074041, 37.2640883], [-122.0074031, 37.2640151], [-122.0075067, 37.2640143], [-122.0075055, 37.2639226], [-122.007613, 37.2639217], [-122.007612, 37.263844], [-122.0076876, 37.2638434], [-122.0076873, 37.2638175], [-122.0079369, 37.2638155], [-122.0079359, 37.2637347], [-122.0080355, 37.2637339], [-122.0080345, 37.263653], [-122.008138, 37.2636521], [-122.0081378, 37.2636327], [-122.0081998, 37.2636323], [-122.0082, 37.2636473], [-122.0083731, 37.2636461], [-122.0083729, 37.2636298], [-122.0084355, 37.2636293], [-122.0084357, 37.2636498], [-122.0085383, 37.2636492], [-122.0085391, 37.2637296], [-122.0086339, 37.263729], [-122.0086348, 37.2638198], [-122.0086661, 37.2638196], [-122.008666, 37.263832], [-122.0086664, 37.2638517], [-122.0086451, 37.2638518], [-122.0086474, 37.264082], [-122.0086731, 37.2640818], [-122.0086736, 37.2641317], [-122.0086456, 37.2641319], [-122.0086464, 37.2642064]]]}}, {"type": "Feature", "id": 260622543, "properties": {"name": "Theater Arts", "kind": "building", "building": "yes", "code": "TA", "addr": "", "code_source": "Official West Valley College campus map, February 2024 (legend)", "code_note": "The official legend reads TA = Theater Arts and ART = Art Studios. An earlier build of this map had ART on this building; corrected 2026-09-08."}, "geometry": {"type": "Polygon", "coordinates": [[[-122.0076156, 37.2653912], [-122.0073173, 37.2653935], [-122.0073171, 37.2653713], [-122.0072691, 37.2653716], [-122.0072702, 37.2654643], [-122.0071183, 37.2654655], [-122.0071151, 37.2652011], [-122.0072654, 37.2652], [-122.0072661, 37.2652645], [-122.007311, 37.2652641], [-122.00731, 37.2651826], [-122.0070975, 37.2651842], [-122.0070962, 37.2650738], [-122.0072633, 37.2650726], [-122.0072639, 37.2651191], [-122.0073041, 37.2651188], [-122.0073025, 37.2649895], [-122.0076107, 37.2649871], [-122.0076156, 37.2653912]]]}}, {"type": "Feature", "id": 260622544, "properties": {"name": "Fine Arts and Music", "kind": "building", "building": "yes", "code": "MU", "addr": "", "code_source": "Official West Valley College campus map, February 2024 (legend)"}, "geometry": {"type": "Polygon", "coordinates": [[[-122.0082591, 37.2654444], [-122.0080755, 37.2654454], [-122.0080752, 37.2653955], [-122.0076541, 37.2653976], [-122.0076526, 37.2652115], [-122.0080711, 37.2652094], [-122.0080708, 37.2651686], [-122.0082569, 37.2651677], [-122.0082591, 37.2654444]]]}}, {"type": "Feature", "id": 260622545, "properties": {"name": "Art Studios", "kind": "building", "building": "yes", "code": "ART", "addr": "", "code_source": "Official West Valley College campus map, February 2024 (legend)"}, "geometry": {"type": "Polygon", "coordinates": [[[-122.0083652, 37.2649047], [-122.0083101, 37.2649052], [-122.0083094, 37.2648557], [-122.0080927, 37.2648575], [-122.008092, 37.2647973], [-122.0080051, 37.264798], [-122.0080039, 37.2647002], [-122.0080796, 37.2646996], [-122.008078, 37.2645746], [-122.0082558, 37.2645731], [-122.0082548, 37.2644902], [-122.0083891, 37.2644891], [-122.0083938, 37.2648611], [-122.0083647, 37.2648613], [-122.0083652, 37.2649047]]]}}, {"type": "Feature", "id": 260622546, "properties": {"name": "", "kind": "building", "building": "yes", "code": "", "addr": ""}, "geometry": {"type": "Polygon", "coordinates": [[[-122.0079112, 37.2663025], [-122.0078126, 37.2662283], [-122.0079299, 37.2661297], [-122.0080285, 37.2662039], [-122.0079112, 37.2663025]]]}}, {"type": "Feature", "id": 260622547, "properties": {"name": "Child Development Center", "kind": "building", "building": "yes", "code": "CH2", "addr": "", "code_source": "Official West Valley College campus map, February 2024 (legend)"}, "geometry": {"type": "Polygon", "coordinates": [[[-122.0083747, 37.2660412], [-122.0082647, 37.266042], [-122.0082644, 37.2660102], [-122.008133, 37.2660111], [-122.0081337, 37.2660801], [-122.008066, 37.2660805], [-122.0080642, 37.2659158], [-122.0083734, 37.2659138], [-122.0083747, 37.2660412]]]}}, {"type": "Feature", "id": 260622548, "properties": {"name": "", "kind": "building", "building": "yes", "code": "", "addr": ""}, "geometry": {"type": "Polygon", "coordinates": [[[-122.009162, 37.2659274], [-122.0087153, 37.2659343], [-122.0087129, 37.2658348], [-122.0086938, 37.2658351], [-122.0086915, 37.2657427], [-122.0091731, 37.2657353], [-122.0091753, 37.2658236], [-122.0091595, 37.2658238], [-122.009162, 37.2659274]]]}}, {"type": "Feature", "id": 260622549, "properties": {"name": "", "kind": "building", "building": "yes", "code": "", "addr": ""}, "geometry": {"type": "Polygon", "coordinates": [[[-122.0091205, 37.2657137], [-122.0087389, 37.2657158], [-122.0087341, 37.2651362], [-122.0091156, 37.2651342], [-122.0091193, 37.2653982], [-122.0091195, 37.2654483], [-122.0091205, 37.2657137]]]}}, {"type": "Feature", "id": 260622550, "properties": {"name": "", "kind": "building", "building": "yes", "code": "", "addr": ""}, "geometry": {"type": "Polygon", "coordinates": [[[-122.0098519, 37.2658145], [-122.0097785, 37.2658155], [-122.0097839, 37.2659275], [-122.0096815, 37.2659732], [-122.0095976, 37.2659729], [-122.0095977, 37.2659513], [-122.0095253, 37.2659564], [-122.0095265, 37.2658251], [-122.009467, 37.2658183], [-122.0094606, 37.2654455], [-122.0094598, 37.2653964], [-122.0094562, 37.2651238], [-122.0098362, 37.2651201], [-122.0098404, 37.2653857], [-122.0098784, 37.2653853], [-122.0098796, 37.265464], [-122.0098465, 37.2654643], [-122.0098513, 37.2657741], [-122.0098519, 37.2658145]]]}}, {"type": "Feature", "id": 260622551, "properties": {"name": "Science and Math", "kind": "building", "building": "yes", "code": "SM", "addr": "", "code_source": "Official West Valley College campus map, February 2024 (legend)"}, "geometry": {"type": "Polygon", "coordinates": [[[-122.0092871, 37.2657385], [-122.009165, 37.2656435], [-122.0091583, 37.265461], [-122.0092321, 37.2654621], [-122.0092331, 37.265448], [-122.009233, 37.2653979], [-122.0092307, 37.2653148], [-122.0091784, 37.265271], [-122.0092871, 37.2651803], [-122.0093984, 37.2652678], [-122.009342, 37.2653105], [-122.009343, 37.2653976], [-122.0093438, 37.2654467], [-122.0093447, 37.2654599], [-122.0094051, 37.2654567], [-122.0094131, 37.2656478], [-122.0092871, 37.2657385]]]}}, {"type": "Feature", "id": 260622552, "properties": {"name": "", "kind": "building", "building": "yes", "code": "", "addr": ""}, "geometry": {"type": "Polygon", "coordinates": [[[-122.0094606, 37.2654455], [-122.0093438, 37.2654467], [-122.009343, 37.2653976], [-122.0094598, 37.2653964], [-122.0094606, 37.2654455]]]}}, {"type": "Feature", "id": 260622553, "properties": {"name": "", "kind": "building", "building": "yes", "code": "", "addr": ""}, "geometry": {"type": "Polygon", "coordinates": [[[-122.0092331, 37.265448], [-122.0091195, 37.2654483], [-122.0091193, 37.2653982], [-122.009233, 37.2653979], [-122.0092331, 37.265448]]]}}, {"type": "Feature", "id": 260622554, "properties": {"name": "", "kind": "building", "building": "yes", "code": "", "addr": ""}, "geometry": {"type": "Polygon", "coordinates": [[[-122.0102373, 37.2651702], [-122.0100763, 37.2651712], [-122.0100743, 37.2649732], [-122.0102352, 37.2649722], [-122.0102373, 37.2651702]]]}}, {"type": "Feature", "id": 260622555, "properties": {"name": "", "kind": "building", "building": "yes", "code": "", "addr": ""}, "geometry": {"type": "Polygon", "coordinates": [[[-122.0102421, 37.2653725], [-122.0100832, 37.2653728], [-122.0100828, 37.265233], [-122.0102418, 37.2652327], [-122.0102421, 37.2653725]]]}}, {"type": "Feature", "id": 260622556, "properties": {"name": "", "kind": "building", "building": "yes", "code": "", "addr": ""}, "geometry": {"type": "Polygon", "coordinates": [[[-122.0103492, 37.2655692], [-122.0100492, 37.2655711], [-122.009972, 37.2655712], [-122.0099718, 37.2654435], [-122.0103469, 37.2654431], [-122.0103492, 37.2655692]]]}}, {"type": "Feature", "id": 260622557, "properties": {"name": "Community Education", "kind": "building", "building": "yes", "code": "CE", "addr": "", "code_source": "Official West Valley College campus map, February 2024 (legend)"}, "geometry": {"type": "Polygon", "coordinates": [[[-122.0104877, 37.2658847], [-122.0103654, 37.2659667], [-122.0102673, 37.265874], [-122.0103895, 37.265792], [-122.0104877, 37.2658847]]]}}, {"type": "Feature", "id": 260622558, "properties": {"name": "Learning Services", "kind": "building", "building": "yes", "code": "CAA", "addr": "", "code_source": "Official West Valley College campus map, February 2024 (legend)", "code_note": "OpenStreetMap names this building 'Learning Services'; the official Feb 2024 map puts CAA (College of Adaptive Arts) at this footprint (matched to 1.7 m).", "houses": "College of Adaptive Arts, a community partnership"}, "geometry": {"type": "Polygon", "coordinates": [[[-122.0105454, 37.2648497], [-122.0105058, 37.2648499], [-122.0103218, 37.264851], [-122.0103194, 37.2645781], [-122.0103807, 37.2645778], [-122.01038, 37.2644982], [-122.0105423, 37.2644973], [-122.0105448, 37.2648205], [-122.0105454, 37.2648497]]]}}, {"type": "Feature", "id": 260622561, "properties": {"name": "Administration", "kind": "building", "building": "yes", "code": "AD/PO", "addr": "", "code_source": "Official West Valley College campus map, February 2024 (legend)", "houses": "Board Room, District Administration, Finance, HR, Payroll, President's Office"}, "geometry": {"type": "Polygon", "coordinates": [[[-122.0110186, 37.2643594], [-122.0109165, 37.2643598], [-122.0109153, 37.264334], [-122.0106935, 37.2643361], [-122.0106904, 37.2640686], [-122.0107641, 37.2640689], [-122.0107937, 37.264069], [-122.0107895, 37.2639044], [-122.0108714, 37.2639027], [-122.0108922, 37.2639023], [-122.0108927, 37.2638104], [-122.011032, 37.2638096], [-122.0110342, 37.264], [-122.0110343, 37.2640037], [-122.0109656, 37.264005], [-122.0109669, 37.2640864], [-122.0109694, 37.2641789], [-122.0111458, 37.264176], [-122.0111042, 37.2643197], [-122.0110194, 37.2643201], [-122.0110186, 37.2643594]]]}}, {"type": "Feature", "id": 260622564, "properties": {"name": "Che School of Professional Studies", "kind": "building", "building": "yes", "code": "CHE", "addr": "", "code_source": "Official West Valley College campus map, February 2024 (legend)"}, "geometry": {"type": "Polygon", "coordinates": [[[-122.011653, 37.2647322], [-122.011436, 37.2647334], [-122.0114027, 37.2647336], [-122.0112288, 37.2647347], [-122.011226, 37.2646307], [-122.0112238, 37.2645146], [-122.0112221, 37.2644264], [-122.0112208, 37.264314], [-122.01185, 37.2643016], [-122.0118572, 37.264645], [-122.0117951, 37.2646463], [-122.0117967, 37.2647063], [-122.0117974, 37.2647294], [-122.011653, 37.2647322]]]}}, {"type": "Feature", "id": 260622565, "properties": {"name": "Che School of Professional Studies", "kind": "building", "building": "yes", "code": "CHE", "addr": "", "code_source": "Official West Valley College campus map, February 2024 (legend)"}, "geometry": {"type": "Polygon", "coordinates": [[[-122.0111474, 37.264745], [-122.0110134, 37.2647452], [-122.0109077, 37.2647454], [-122.0109074, 37.2646383], [-122.0109917, 37.2646382], [-122.0109912, 37.2644681], [-122.0111466, 37.2644678], [-122.0111465, 37.2645964], [-122.0111474, 37.264745]]]}}, {"type": "Feature", "id": 260622566, "properties": {"name": "Fox Center", "kind": "building", "building": "yes", "code": "FOX", "addr": "", "code_source": "Official West Valley College campus map, February 2024 (legend)"}, "geometry": {"type": "Polygon", "coordinates": [[[-122.0118513, 37.2634843], [-122.0116447, 37.2634886], [-122.0116273, 37.2634662], [-122.0116487, 37.2633285], [-122.0116662, 37.2633103], [-122.0117694, 37.2633082], [-122.0117669, 37.2632174], [-122.0117654, 37.2631364], [-122.0116447, 37.2631097], [-122.0116259, 37.2630937], [-122.0116192, 37.262877], [-122.0116394, 37.2627681], [-122.0116608, 37.2627532], [-122.0118258, 37.2627479], [-122.0118392, 37.2627596], [-122.0118405, 37.2628354], [-122.0119183, 37.2628354], [-122.0119384, 37.2628482], [-122.01198, 37.2629816], [-122.011984, 37.2630777], [-122.0119626, 37.2630958], [-122.0118432, 37.2630979], [-122.0118438, 37.2631395], [-122.0118445, 37.2631492], [-122.0120202, 37.2631801], [-122.0120363, 37.2631993], [-122.0120122, 37.2632911], [-122.0119947, 37.263305], [-122.0118459, 37.2633082], [-122.0118459, 37.2633356], [-122.0118513, 37.2634843]]]}}, {"type": "Feature", "id": 260622567, "properties": {"name": "Campus Center and Bookstore", "kind": "building", "building": "yes", "code": "CC", "addr": "", "code_source": "Official West Valley College campus map, February 2024 (legend)", "houses": "Student Needs, The Closet, The Cohn Family Food Pantry, Veterans Resource Center"}, "geometry": {"type": "Polygon", "coordinates": [[[-122.0114382, 37.2635111], [-122.011201, 37.2635151], [-122.0111992, 37.2634471], [-122.0111339, 37.2634482], [-122.0111356, 37.2635094], [-122.0108933, 37.2635134], [-122.0108861, 37.2632435], [-122.0110316, 37.263241], [-122.0110337, 37.2633185], [-122.0111942, 37.2633158], [-122.0111864, 37.2630241], [-122.0108596, 37.2630296], [-122.010821, 37.2630302], [-122.0108219, 37.2630654], [-122.0106697, 37.263068], [-122.0106656, 37.2629132], [-122.0107744, 37.2629114], [-122.0107702, 37.2627561], [-122.0114216, 37.262745], [-122.0114282, 37.2629907], [-122.0114803, 37.2629898], [-122.0114833, 37.2631029], [-122.0114374, 37.2631036], [-122.0114408, 37.2632334], [-122.0114834, 37.2632327], [-122.0114864, 37.2633456], [-122.0114338, 37.2633465], [-122.0114382, 37.2635111]]]}}, {"type": "Feature", "id": 260622568, "properties": {"name": "Kirkorian Pavilion", "kind": "building", "building": "yes", "code": "KP", "addr": "", "code_source": "Official West Valley College campus map, February 2024 (legend)"}, "geometry": {"type": "Polygon", "coordinates": [[[-122.0107006, 37.2633552], [-122.0105632, 37.2633568], [-122.0105612, 37.2632474], [-122.0106986, 37.2632458], [-122.0107006, 37.2633552]]]}}, {"type": "Feature", "id": 260623524, "properties": {"name": "", "kind": "building", "building": "yes", "code": "", "addr": ""}, "geometry": {"type": "Polygon", "coordinates": [[[-122.0124301, 37.2618541], [-122.0121002, 37.261857], [-122.0120978, 37.2616857], [-122.0124278, 37.2616828], [-122.0124301, 37.2618541]]]}}, {"type": "Feature", "id": 260623525, "properties": {"name": "", "kind": "building", "building": "yes", "code": "", "addr": ""}, "geometry": {"type": "Polygon", "coordinates": [[[-122.0103191, 37.2621422], [-122.0098803, 37.2621476], [-122.0098719, 37.2617135], [-122.0097748, 37.2617128], [-122.0097741, 37.2616274], [-122.0098647, 37.2616226], [-122.0098615, 37.2614568], [-122.009913, 37.2614562], [-122.0099121, 37.2614095], [-122.0102471, 37.2614054], [-122.0102481, 37.26146], [-122.0103148, 37.2614592], [-122.0103166, 37.2615508], [-122.0103668, 37.2615502], [-122.0104133, 37.2615496], [-122.0104157, 37.2616725], [-122.0104178, 37.2617832], [-122.0103662, 37.2617838], [-122.0103122, 37.2617845], [-122.0103191, 37.2621422]]]}}, {"type": "Feature", "id": 260623527, "properties": {"name": "Physical Education", "kind": "building", "building": "yes", "code": "PE", "addr": "", "code_source": "Official West Valley College campus map, February 2024 (legend)"}, "geometry": {"type": "Polygon", "coordinates": [[[-122.0097788, 37.2621107], [-122.0094103, 37.2621132], [-122.0093999, 37.2613259], [-122.0097732, 37.2613214], [-122.0097741, 37.2616274], [-122.0097748, 37.2617128], [-122.0097788, 37.2621107]]]}}, {"type": "Feature", "id": 260623530, "properties": {"name": "Information Systems", "kind": "building", "building": "yes", "code": "IS", "addr": "", "code_source": "Official West Valley College campus map, February 2024 (legend)"}, "geometry": {"type": "Polygon", "coordinates": [[[-122.009286, 37.2615526], [-122.0089317, 37.2615556], [-122.0089315, 37.261545], [-122.0088123, 37.261546], [-122.0088098, 37.2613605], [-122.0090299, 37.2613586], [-122.0090295, 37.2613304], [-122.009283, 37.2613282], [-122.009286, 37.2615526]]]}}, {"type": "Feature", "id": 260623539, "properties": {"name": "", "kind": "building", "building": "yes", "code": "", "addr": ""}, "geometry": {"type": "Polygon", "coordinates": [[[-122.0099135, 37.2624235], [-122.0097237, 37.2624261], [-122.0097195, 37.2622349], [-122.0099607, 37.2622315], [-122.00996, 37.2622011], [-122.010422, 37.2621947], [-122.0104267, 37.2624094], [-122.009959, 37.2624159], [-122.0099581, 37.2623739], [-122.0099124, 37.2623746], [-122.0099135, 37.2624235]]]}}, {"type": "Feature", "id": 260623541, "properties": {"name": "", "kind": "building", "building": "yes", "code": "", "addr": ""}, "geometry": {"type": "Polygon", "coordinates": [[[-122.0096526, 37.2623194], [-122.0092992, 37.262323], [-122.0092962, 37.2621351], [-122.0094405, 37.2621336], [-122.0094416, 37.2622024], [-122.0096506, 37.2622002], [-122.0096526, 37.2623194]]]}}, {"type": "Feature", "id": 260623545, "properties": {"name": "", "kind": "building", "building": "yes", "code": "", "addr": ""}, "geometry": {"type": "Polygon", "coordinates": [[[-122.009269, 37.2623119], [-122.0090437, 37.2623151], [-122.0090411, 37.2621976], [-122.0092663, 37.2621944], [-122.009269, 37.2623119]]]}}, {"type": "Feature", "id": 260623547, "properties": {"name": "", "kind": "building", "building": "yes", "code": "", "addr": ""}, "geometry": {"type": "Polygon", "coordinates": [[[-122.0090153, 37.2623278], [-122.0087713, 37.2623301], [-122.0087696, 37.2622143], [-122.0090136, 37.262212], [-122.0090153, 37.2623278]]]}}, {"type": "Feature", "id": 260623548, "properties": {"name": "Police Department", "kind": "building", "building": "yes", "code": "PD", "addr": "", "code_source": "Official West Valley College campus map, February 2024 (legend)"}, "geometry": {"type": "Polygon", "coordinates": [[[-122.0092069, 37.2624717], [-122.0090494, 37.2624761], [-122.0090449, 37.2623714], [-122.0092023, 37.262367], [-122.0092069, 37.2624717]]]}}, {"type": "Feature", "id": 414856364, "properties": {"name": "Saratoga Institute of Religion", "kind": "building", "building": "church", "code": "", "addr": ""}, "geometry": {"type": "Polygon", "coordinates": [[[-122.0058605, 37.2664384], [-122.0057457, 37.2662946], [-122.0059955, 37.2661682], [-122.0061103, 37.266312], [-122.0058605, 37.2664384]]]}}, {"type": "Feature", "id": 414856368, "properties": {"name": "", "kind": "parking", "building": "", "code": "", "addr": ""}, "geometry": {"type": "Polygon", "coordinates": [[[-122.0061934, 37.2666785], [-122.0057535, 37.2666775], [-122.0057495, 37.266511], [-122.0060754, 37.2663829], [-122.006184, 37.2663829], [-122.0061934, 37.2666785]]]}}, {"type": "Feature", "id": 582056146, "properties": {"name": "", "kind": "parking", "building": "", "code": "", "addr": ""}, "geometry": {"type": "Polygon", "coordinates": [[[-122.0084947, 37.2626341], [-122.0083804, 37.2627472], [-122.0080264, 37.2630238], [-122.0075511, 37.2633326], [-122.0074155, 37.2633742], [-122.0074047, 37.2628961], [-122.0073569, 37.2628801], [-122.00732, 37.2628213], [-122.0073192, 37.2627077], [-122.0076369, 37.2627062], [-122.0076381, 37.2628594], [-122.0077719, 37.2628588], [-122.0077723, 37.2628051], [-122.0081167, 37.2628017], [-122.0081157, 37.262595], [-122.0078458, 37.2625956], [-122.0078393, 37.2624601], [-122.0084968, 37.2624597], [-122.0084948, 37.2625673], [-122.008425, 37.2625948], [-122.0084947, 37.2626341]]]}}, {"type": "Feature", "id": 594659034, "properties": {"name": "", "kind": "building", "building": "roof", "code": "", "addr": ""}, "geometry": {"type": "Polygon", "coordinates": [[[-122.0131085, 37.2622439], [-122.0124535, 37.2622486], [-122.0124533, 37.2621533], [-122.0131092, 37.2621523], [-122.0131085, 37.2622439]]]}}, {"type": "Feature", "id": 613997816, "properties": {"name": "", "kind": "building", "building": "roof", "code": "", "addr": ""}, "geometry": {"type": "Polygon", "coordinates": [[[-122.0131115, 37.2624286], [-122.0124546, 37.2624318], [-122.0124564, 37.262338], [-122.0131122, 37.262337], [-122.0131115, 37.2624286]]]}}, {"type": "Feature", "id": 613997817, "properties": {"name": "", "kind": "building", "building": "roof", "code": "", "addr": ""}, "geometry": {"type": "Polygon", "coordinates": [[[-122.0131124, 37.2626119], [-122.0124555, 37.2626151], [-122.0124572, 37.2625213], [-122.0131131, 37.2625203], [-122.0131124, 37.2626119]]]}}, {"type": "Feature", "id": 613997818, "properties": {"name": "", "kind": "building", "building": "roof", "code": "", "addr": ""}, "geometry": {"type": "Polygon", "coordinates": [[[-122.0131114, 37.2627945], [-122.0124565, 37.2627968], [-122.0124563, 37.2627039], [-122.0131121, 37.2627028], [-122.0131114, 37.2627945]]]}}, {"type": "Feature", "id": 613997819, "properties": {"name": "", "kind": "building", "building": "roof", "code": "", "addr": ""}, "geometry": {"type": "Polygon", "coordinates": [[[-122.0131125, 37.2629798], [-122.0124575, 37.2629821], [-122.0124573, 37.2628892], [-122.0131132, 37.2628881], [-122.0131125, 37.2629798]]]}}, {"type": "Feature", "id": 613997820, "properties": {"name": "", "kind": "building", "building": "roof", "code": "", "addr": ""}, "geometry": {"type": "Polygon", "coordinates": [[[-122.0131145, 37.2631639], [-122.0124595, 37.2631662], [-122.0124593, 37.2630733], [-122.0131152, 37.2630722], [-122.0131145, 37.2631639]]]}}, {"type": "Feature", "id": 613997821, "properties": {"name": "", "kind": "building", "building": "roof", "code": "", "addr": ""}, "geometry": {"type": "Polygon", "coordinates": [[[-122.0131014, 37.2641713], [-122.0124464, 37.2641737], [-122.0124462, 37.2640807], [-122.0131021, 37.2640797], [-122.0131014, 37.2641713]]]}}, {"type": "Feature", "id": 613997822, "properties": {"name": "", "kind": "building", "building": "roof", "code": "", "addr": ""}, "geometry": {"type": "Polygon", "coordinates": [[[-122.013099, 37.2643615], [-122.0124441, 37.2643638], [-122.0124439, 37.2642709], [-122.0130998, 37.2642698], [-122.013099, 37.2643615]]]}}, {"type": "Feature", "id": 613997823, "properties": {"name": "", "kind": "building", "building": "roof", "code": "", "addr": ""}, "geometry": {"type": "Polygon", "coordinates": [[[-122.0131037, 37.2645575], [-122.0124488, 37.2645599], [-122.0124486, 37.2644669], [-122.0131044, 37.2644659], [-122.0131037, 37.2645575]]]}}, {"type": "Feature", "id": 613997824, "properties": {"name": "", "kind": "building", "building": "roof", "code": "", "addr": ""}, "geometry": {"type": "Polygon", "coordinates": [[[-122.0129601, 37.2647526], [-122.0124476, 37.2647541], [-122.0124474, 37.2646611], [-122.0129597, 37.2646563], [-122.0129601, 37.2647526]]]}}, {"type": "Feature", "id": 613997834, "properties": {"name": "Student Services Center", "kind": "building", "building": "yes", "code": "SSC", "addr": "", "code_source": "Official West Valley College campus map, February 2024 (legend)", "houses": "Admissions & Records, Counseling, DESP, EOPS, Financial Aid, First Year Experience, Outreach, Puente, Student Equity and Success, Student Health, Transfer Center, TRIO, Umoja, Welcome Center"}, "geometry": {"type": "Polygon", "coordinates": [[[-122.0115811, 37.2639621], [-122.0116139, 37.2637804], [-122.0116795, 37.2637878], [-122.0118887, 37.2638179], [-122.0119031, 37.2639626], [-122.0119453, 37.2639651], [-122.011963, 37.2639673], [-122.0119654, 37.2639776], [-122.0119706, 37.2639989], [-122.0121224, 37.2639971], [-122.0121249, 37.2641556], [-122.0113288, 37.2641745], [-122.0113272, 37.2640692], [-122.0113044, 37.2640689], [-122.011303, 37.2639978], [-122.0114679, 37.2639994], [-122.0114671, 37.2639701], [-122.0115398, 37.263965], [-122.0115811, 37.2639621]]]}}, {"type": "Feature", "id": 998648128, "properties": {"name": "", "kind": "building", "building": "shed", "code": "", "addr": ""}, "geometry": {"type": "Polygon", "coordinates": [[[-122.0064822, 37.2654757], [-122.0063784, 37.2654508], [-122.006321, 37.2656172], [-122.0064195, 37.2656412], [-122.0064499, 37.265561], [-122.0064822, 37.2654757]]]}}, {"type": "Feature", "id": 998882161, "properties": {"name": "", "kind": "parking", "building": "", "code": "", "addr": ""}, "geometry": {"type": "Polygon", "coordinates": [[[-122.0085483, 37.2635547], [-122.0083033, 37.2635566], [-122.0083006, 37.2633414], [-122.0085457, 37.2633395], [-122.0085483, 37.2635547]]]}}, {"type": "Feature", "id": 998882163, "properties": {"name": "", "kind": "parking", "building": "", "code": "", "addr": ""}, "geometry": {"type": "Polygon", "coordinates": [[[-122.0108375, 37.2659465], [-122.0107928, 37.2659469], [-122.0107292, 37.2659473], [-122.0107509, 37.265979], [-122.0107488, 37.266023], [-122.0107413, 37.266029], [-122.0107217, 37.2660268], [-122.0107105, 37.2660256], [-122.0106721, 37.2660259], [-122.0106739, 37.2661922], [-122.0107382, 37.2661917], [-122.0107385, 37.2662126], [-122.0108404, 37.2662119], [-122.0108375, 37.2659465]]]}}, {"type": "Feature", "id": 1000875687, "properties": {"name": "", "kind": "parking", "building": "", "code": "", "addr": ""}, "geometry": {"type": "Polygon", "coordinates": [[[-122.0088031, 37.261247], [-122.0087904, 37.2600464], [-122.0086817, 37.2600469], [-122.008688, 37.2612468], [-122.0088031, 37.261247]]]}}, {"type": "Feature", "id": 1000880581, "properties": {"name": "", "kind": "parking", "building": "", "code": "", "addr": ""}, "geometry": {"type": "Polygon", "coordinates": [[[-122.0124414, 37.2634873], [-122.0124427, 37.2634371], [-122.0124098, 37.2634328], [-122.0123803, 37.2634216], [-122.0123582, 37.2634056], [-122.0123461, 37.2633933], [-122.0123368, 37.2633704], [-122.012326, 37.2632455], [-122.012314, 37.26323], [-122.0123119, 37.2630929], [-122.0123072, 37.2630844], [-122.0122979, 37.2630811], [-122.0122965, 37.2629851], [-122.0123052, 37.2629824], [-122.0123106, 37.2629749], [-122.0123113, 37.2629627], [-122.0123119, 37.2627732], [-122.0123126, 37.2627439], [-122.0123106, 37.2627231], [-122.0123059, 37.2627161], [-122.0122979, 37.262714], [-122.0122952, 37.2626179], [-122.0123052, 37.2626153], [-122.0123106, 37.2626083], [-122.0123093, 37.2623564], [-122.0123059, 37.2623495], [-122.0122958, 37.2623463], [-122.0122958, 37.2622529], [-122.0123039, 37.2622502], [-122.0123093, 37.2622444], [-122.0123093, 37.2622209], [-122.0123093, 37.2621926], [-122.0123086, 37.2620805], [-122.0123166, 37.2620789], [-122.0123193, 37.2620741], [-122.0123186, 37.2620303], [-122.0127116, 37.2620293], [-122.0135652, 37.2620287], [-122.0135719, 37.2623794], [-122.0135726, 37.2627481], [-122.0135746, 37.2631153], [-122.0135773, 37.2634846], [-122.0124414, 37.2634873]]]}}, {"type": "Feature", "id": 1160073059, "properties": {"name": "", "kind": "building", "building": "roof", "code": "", "addr": ""}, "geometry": {"type": "Polygon", "coordinates": [[[-122.005794, 37.2645234], [-122.0057929, 37.2644134], [-122.0062785, 37.2644101], [-122.0062796, 37.2645202], [-122.005794, 37.2645234]]]}}, {"type": "Feature", "id": 1160073060, "properties": {"name": "", "kind": "building", "building": "roof", "code": "", "addr": ""}, "geometry": {"type": "Polygon", "coordinates": [[[-122.0062145, 37.2640058], [-122.0062138, 37.2638951], [-122.0057946, 37.2638967], [-122.0057952, 37.2640074], [-122.0062145, 37.2640058]]]}}, {"type": "Feature", "id": 1160073061, "properties": {"name": "", "kind": "building", "building": "roof", "code": "", "addr": ""}, "geometry": {"type": "Polygon", "coordinates": [[[-122.0062131, 37.2641769], [-122.0062125, 37.2640662], [-122.0057932, 37.2640679], [-122.0057939, 37.2641785], [-122.0062131, 37.2641769]]]}}, {"type": "Feature", "id": 1160073062, "properties": {"name": "", "kind": "building", "building": "roof", "code": "", "addr": ""}, "geometry": {"type": "Polygon", "coordinates": [[[-122.0062069, 37.2643492], [-122.0062062, 37.2642385], [-122.005787, 37.2642402], [-122.0057877, 37.2643508], [-122.0062069, 37.2643492]]]}}, {"type": "Feature", "id": 1160073063, "properties": {"name": "", "kind": "building", "building": "roof", "code": "", "addr": ""}, "geometry": {"type": "Polygon", "coordinates": [[[-122.0062381, 37.2646899], [-122.0062374, 37.2645792], [-122.0058182, 37.2645808], [-122.0058188, 37.2646915], [-122.0062381, 37.2646899]]]}}, {"type": "Feature", "id": 1160073064, "properties": {"name": "", "kind": "building", "building": "roof", "code": "", "addr": ""}, "geometry": {"type": "Polygon", "coordinates": [[[-122.0062951, 37.26383], [-122.0062937, 37.2637554], [-122.0058132, 37.2637613], [-122.0058146, 37.2638358], [-122.0062951, 37.26383]]]}}, {"type": "Feature", "id": 1160073065, "properties": {"name": "", "kind": "building", "building": "roof", "code": "", "addr": ""}, "geometry": {"type": "Polygon", "coordinates": [[[-122.0075377, 37.2665573], [-122.0075346, 37.2664538], [-122.0072343, 37.2664595], [-122.0072374, 37.2665631], [-122.0075377, 37.2665573]]]}}, {"type": "Feature", "id": 1160073066, "properties": {"name": "", "kind": "building", "building": "roof", "code": "", "addr": ""}, "geometry": {"type": "Polygon", "coordinates": [[[-122.0071082, 37.2671819], [-122.0069659, 37.2671839], [-122.0069499, 37.2664675], [-122.0070921, 37.2664654], [-122.0071082, 37.2671819]]]}}, {"type": "Feature", "id": 1160073067, "properties": {"name": "", "kind": "building", "building": "roof", "code": "", "addr": ""}, "geometry": {"type": "Polygon", "coordinates": [[[-122.0068614, 37.267216], [-122.0067219, 37.2672181], [-122.006704, 37.266457], [-122.0068433, 37.2664549], [-122.0068614, 37.267216]]]}}, {"type": "Feature", "id": 1160073068, "properties": {"name": "", "kind": "building", "building": "roof", "code": "", "addr": ""}, "geometry": {"type": "Polygon", "coordinates": [[[-122.0066127, 37.2672715], [-122.0064732, 37.2672736], [-122.0064553, 37.2664159], [-122.0065937, 37.266418], [-122.0066127, 37.2672715]]]}}, {"type": "Feature", "id": 1296473718, "properties": {"name": "", "kind": "parking", "building": "", "code": "", "addr": ""}, "geometry": {"type": "Polygon", "coordinates": [[[-122.0135773, 37.2637691], [-122.0124486, 37.2637703], [-122.0124137, 37.2637763], [-122.0123773, 37.2637932], [-122.0123576, 37.2638149], [-122.0123455, 37.2638463], [-122.012347, 37.2639681], [-122.0123289, 37.263997], [-122.0123334, 37.2650883], [-122.0124955, 37.2650858], [-122.0126455, 37.2650919], [-122.012791, 37.2650991], [-122.0129364, 37.2651148], [-122.0130804, 37.2651268], [-122.0132258, 37.2651353], [-122.0133728, 37.2651389], [-122.0135682, 37.2651389], [-122.0135773, 37.2637691]]]}}, {"type": "Feature", "id": 1296473727, "properties": {"name": "", "kind": "parking", "building": "", "code": "", "addr": ""}, "geometry": {"type": "Polygon", "coordinates": [[[-122.0123235, 37.2652853], [-122.012666, 37.2652926], [-122.012669, 37.2653529], [-122.0127902, 37.2653577], [-122.0127932, 37.2653058], [-122.0131508, 37.2653324], [-122.0135493, 37.2653432], [-122.0135871, 37.2653541], [-122.0136038, 37.2653794], [-122.0135932, 37.266092], [-122.0134538, 37.2660908], [-122.0133205, 37.2661028], [-122.0131856, 37.2661282], [-122.0130584, 37.2661704], [-122.0129417, 37.266227], [-122.0128326, 37.2662982], [-122.0127341, 37.2663898], [-122.012666, 37.266479], [-122.0126023, 37.26659], [-122.012575, 37.2666937], [-122.0125629, 37.2667998], [-122.012569, 37.2669951], [-122.0125478, 37.2670265], [-122.0123432, 37.2670253], [-122.0121463, 37.2670156], [-122.0119917, 37.2669903], [-122.0118599, 37.2669782], [-122.0117599, 37.2669782], [-122.0117099, 37.2669674], [-122.0116736, 37.2669433], [-122.0116641, 37.2669102], [-122.0116554, 37.266168], [-122.011735, 37.2661674], [-122.0117346, 37.2661209], [-122.0119009, 37.2661208], [-122.011901, 37.2661677], [-122.0123569, 37.2661668], [-122.0124644, 37.2661402], [-122.012566, 37.2660908], [-122.0126356, 37.2660281], [-122.0126705, 37.2659521], [-122.012672, 37.2655325], [-122.0126629, 37.2654915], [-122.0126402, 37.265471], [-122.0126008, 37.265459], [-122.0123114, 37.265459], [-122.0123235, 37.2652853]]]}}, {"type": "Feature", "id": 1296473728, "properties": {"name": "", "kind": "parking", "building": "", "code": "", "addr": ""}, "geometry": {"type": "Polygon", "coordinates": [[[-122.0113028, 37.2669869], [-122.0109806, 37.2669853], [-122.0106107, 37.2670184], [-122.01022, 37.2670399], [-122.0091746, 37.2670564], [-122.0089397, 37.2670746], [-122.0088025, 37.2670961], [-122.0087901, 37.2661831], [-122.0090041, 37.2661649], [-122.0092618, 37.2661798], [-122.0095029, 37.2662063], [-122.0097482, 37.2662393], [-122.0099893, 37.2662542], [-122.0102345, 37.2662741], [-122.0104922, 37.2662939], [-122.010726, 37.266308], [-122.0109661, 37.2663088], [-122.0112446, 37.2662741], [-122.0113713, 37.2662641], [-122.0114129, 37.2662708], [-122.0114337, 37.2663022], [-122.0114462, 37.266891], [-122.0114254, 37.2669357], [-122.0113838, 37.2669704], [-122.0113028, 37.2669869]]]}}, {"type": "Feature", "id": 1296473729, "properties": {"name": "", "kind": "parking", "building": "", "code": "", "addr": ""}, "geometry": {"type": "Polygon", "coordinates": [[[-122.0077007, 37.2662672], [-122.007667, 37.2661627], [-122.0075375, 37.26615], [-122.0074026, 37.2661429], [-122.0072997, 37.2661486], [-122.007179, 37.2661641], [-122.007195, 37.2662488], [-122.0073174, 37.2662333], [-122.0074079, 37.2662305], [-122.0075375, 37.2662418], [-122.0077007, 37.2662672]]]}}, {"type": "Feature", "id": 1296473731, "properties": {"name": "", "kind": "parking", "building": "", "code": "", "addr": ""}, "geometry": {"type": "Polygon", "coordinates": [[[-122.0070546, 37.2635925], [-122.006796, 37.2635955], [-122.0067929, 37.2634253], [-122.0068808, 37.2634243], [-122.0068801, 37.2633814], [-122.0071241, 37.2633787], [-122.0071248, 37.2634203], [-122.0071917, 37.2634196], [-122.0071935, 37.2635198], [-122.0071348, 37.2635204], [-122.0070546, 37.2635925]]]}}, {"type": "Feature", "id": 1299352218, "properties": {"name": "", "kind": "building", "building": "yes", "code": "", "addr": ""}, "geometry": {"type": "Polygon", "coordinates": [[[-122.0085862, 37.2668434], [-122.0087471, 37.2668418], [-122.0087439, 37.2666412], [-122.008583, 37.2666428], [-122.0085862, 37.2668434]]]}}, {"type": "Feature", "id": 1299352219, "properties": {"name": "", "kind": "building", "building": "yes", "code": "", "addr": ""}, "geometry": {"type": "Polygon", "coordinates": [[[-122.0085835, 37.2666018], [-122.0087444, 37.2665989], [-122.0087353, 37.2662789], [-122.0085744, 37.2662818], [-122.0085835, 37.2666018]]]}}, {"type": "Feature", "id": 1299352220, "properties": {"name": "", "kind": "building", "building": "yes", "code": "", "addr": ""}, "geometry": {"type": "Polygon", "coordinates": [[[-122.0087483, 37.2670861], [-122.0087474, 37.2668824], [-122.0085872, 37.2668816], [-122.0085882, 37.2670846], [-122.0087483, 37.2670861]]]}}, {"type": "Feature", "id": 1422964396, "properties": {"name": "Visual Arts Building", "kind": "building", "building": "college", "code": "VAB", "addr": "", "code_source": "Official West Valley College campus map, February 2024 (legend)"}, "geometry": {"type": "Polygon", "coordinates": [[[-122.0070886, 37.2648954], [-122.0070872, 37.264793], [-122.0069759, 37.264794], [-122.0069726, 37.2645681], [-122.0070793, 37.2645671], [-122.0070777, 37.2644551], [-122.0072509, 37.2644535], [-122.0072553, 37.2647571], [-122.0074341, 37.2647555], [-122.0074313, 37.2645649], [-122.0076013, 37.2645633], [-122.0076054, 37.2648366], [-122.0075372, 37.2648373], [-122.007538, 37.2648914], [-122.0070886, 37.2648954]]]}}], "bbox": [-122.0132363, 37.2601214, -122.00589620000001, 37.2672805]}